BEIDOU-2 IGSO-1 (C06)   
1 36828U 10036A   26156.83609021 -.00000058  00000+0  00000+0 0  9998
2 36828  54.3006 163.0619 0059092 225.0074 274.8303  1.00275899 57985
BEIDOU-2 G4 (C04)       
1 37210U 10057A   26156.66618806 -.00000100  00000+0  00000+0 0  9997
2 37210   3.6183  69.0151 0004796 203.1726  21.7505  1.00272341 57175
BEIDOU-2 IGSO-2 (C07)   
1 37256U 10068A   26153.71703494 -.00000206  00000+0  00000+0 0  9997
2 37256  47.5760 272.0122 0055435 212.8539 131.7633  1.00288733 56649
BEIDOU-2 IGSO-3 (C08)   
1 37384U 11013A   26155.63444529 -.00000179  00000+0  00000+0 0  9993
2 37384  62.3902  40.2715 0034446 185.4993   3.7397  1.00271497 55536
BEIDOU-2 IGSO-4 (C09)   
1 37763U 11038A   26156.01309722  .00000056  00000+0  00000+0 0  9992
2 37763  54.5979 165.7814 0159001 231.3624 313.8818  1.00287701 54520
BEIDOU-2 IGSO-5 (C10)   
1 37948U 11073A   26156.80025255 -.00000158  00000+0  00000+0 0  9993
2 37948  47.7002 271.6885 0113480 221.7094 140.6659  1.00275734 53022
BEIDOU-2 G5 (C05)       
1 38091U 12008A   26156.85981750  .00000070  00000+0  00000+0 0  9990
2 38091   3.5454  69.7660 0009573 276.3870 276.3697  1.00269687 52258
BEIDOU-2 M3 (C11)       
1 38250U 12018A   26155.83864758 -.00000057  00000+0  00000+0 0  9999
2 38250  55.7694 305.2913 0019927 274.9392  84.8190  1.86230159 95710
BEIDOU-2 M4 (C12)       
1 38251U 12018B   26155.77093162 -.00000057  00000+0  00000+0 0  9996
2 38251  55.6694 304.5088 0011176 276.7033  83.1552  1.86229610 95719
BEIDOU-2 M6 (C14)       
1 38775U 12050B   26156.01768472 -.00000039  00000+0  00000+0 0  9994
2 38775  56.5339  63.2969 0013929 355.3451   4.6688  1.86231028 93081
BEIDOU-2 G6 (C02)       
1 38953U 12059A   26155.79558067 -.00000163  00000+0  00000+0 0  9990
2 38953   4.3899  73.6573 0010170 326.9847 222.9289  1.00268404 49789
BEIDOU-3S IGSO-1S (C31) 
1 40549U 15019A   26156.86652485 -.00000162  00000+0  00000+0 0  9990
2 40549  49.2179 295.5981 0038538 191.1976 171.8395  1.00253453 40962
BEIDOU-3S M2S (C58)     
1 40748U 15037A   26153.28873813 -.00000070  00000+0  00000+0 0  9992
2 40748  54.8844 302.5583 0007848 262.7057  97.1823  1.86232274 73847
BEIDOU-3S M1S (C57)     
1 40749U 15037B   26154.57173103 -.00000062  00000+0  00000+0 0  9992
2 40749  54.8802 302.5027 0003703  59.9652 300.0537  1.86254987 73874
BEIDOU-3S IGSO-2S (C56) 
1 40938U 15053A   26156.75858443 -.00000135  00000+0  00000+0 0  9990
2 40938  49.2404 258.9193 0064948 192.0437 172.0457  1.00262312 39244
BEIDOU-2 IGSO-6 (C13)   
1 41434U 16021A   26156.65254722 -.00000145  00000+0  00000+0 0  9998
2 41434  60.2092  38.1555 0057227 231.4567 312.9233  1.00261992 37367
BEIDOU-2 G7 (C03)       
1 41586U 16037A   26156.87025154 -.00000341  00000+0  00000+0 0  9990
2 41586   1.6918  69.2228 0007356   1.0938 247.8337  1.00270846  6774
BEIDOU-3 M1 (C19)       
1 43001U 17069A   26156.32000248 -.00000038  00000+0  00000+0 0  9990
2 43001  56.6820  63.4758 0010811 323.5949  36.3588  1.86231618 58389
BEIDOU-3 M2 (C20)       
1 43002U 17069B   26156.25871933 -.00000038  00000+0  00000+0 0  9990
2 43002  56.6818  63.5130 0009405 347.9900  12.0146  1.86231067 58374
BEIDOU-3 M7 (C27)       
1 43107U 18003A   26156.53739581 -.00000056  00000+0  00000+0 0  9998
2 43107  54.3388 302.7211 0005055  90.7747 269.2724  1.86228463 57131
BEIDOU-3 M8 (C28)       
1 43108U 18003B   26155.94539274 -.00000058  00000+0  00000+0 0  9992
2 43108  54.3323 302.7237 0002322 267.2927  92.6681  1.86231411 57131
BEIDOU-3 M4 (C22)       
1 43207U 18018A   26156.38828356 -.00000038  00000+0  00000+0 0  9997
2 43207  56.6406  63.5380 0007631  14.1827 345.8659  1.86231503 56527
BEIDOU-3 M3 (C21)       
1 43208U 18018B   26155.91779994 -.00000039  00000+0  00000+0 0  9990
2 43208  56.6402  63.5572 0008992 337.7368  22.2504  1.86231395 56515
BEIDOU-3 M9 (C29)       
1 43245U 18029A   26156.13555275 -.00000056  00000+0  00000+0 0  9991
2 43245  54.2057 300.3710 0000840 140.8471 219.1477  1.86228436 55678
BEIDOU-3 M10 (C30)      
1 43246U 18029B   26156.06997286 -.00000056  00000+0  00000+0 0  9996
2 43246  54.2026 300.3989 0004139  39.5125 320.5060  1.86229565 55655
BEIDOU-2 IGSO-7 (C16)   
1 43539U 18057A   26156.88068082  .00000005  00000+0  00000+0 0  9998
2 43539  55.1930 163.1562 0104656 237.9298 281.0648  1.00255021 29012
BEIDOU-3 M5 (C23)       
1 43581U 18062A   26156.29409564  .00000076  00000+0  00000+0 0  9998
2 43581  54.0850 182.7082 0005508 289.5466  70.4498  1.86228902 53414
BEIDOU-3 M6 (C24)       
1 43582U 18062B   26156.15751238  .00000075  00000+0  00000+0 0  9991
2 43582  54.0845 182.7022 0004838  12.0882 347.9796  1.86228010 53412
BEIDOU-3 M12 (C26)      
1 43602U 18067A   26156.09591174  .00000075  00000+0  00000+0 0  9993
2 43602  54.1794 181.4501 0007802  30.5726 329.5272  1.86227933 52892
BEIDOU-3 M11 (C25)      
1 43603U 18067B   26156.23093994  .00000077  00000+0  00000+0 0  9999
2 43603  54.1770 181.4093 0004488  14.1662 345.9003  1.86227380 52921
BEIDOU-3 M13 (C32)      
1 43622U 18072A   26156.18585866 -.00000039  00000+0  00000+0 0  9993
2 43622  56.6148  63.0554 0007707 325.9899  33.9882  1.86231577 52435
BEIDOU-3 M14 (C33)      
1 43623U 18072B   26156.05130900 -.00000040  00000+0  00000+0 0  9997
2 43623  56.6159  63.0546 0006242 357.9407   2.0840  1.86231360 52422
BEIDOU-3 M16 (C35)      
1 43647U 18078A   26155.66985000 -.00000057  00000+0  00000+0 0  9992
2 43647  54.1020 300.4249 0007420  40.6792 319.3633  1.86232405 51927
BEIDOU-3 M15 (C34)      
1 43648U 18078B   26152.57744501 -.00000074  00000+0  00000+0 0  9998
2 43648  54.1007 300.5335 0004536  56.3394 303.6792  1.86232507 51887
BEIDOU-3 G1 (C59)       
1 43683U 18085A   26156.80879698 -.00000096  00000+0  00000+0 0  9995
2 43683   2.8392  97.6932 0008572 345.9658 261.7280  1.00272020 27940
BEIDOU-3 M17 (C36)      
1 43706U 18093A   26154.62162884  .00000067  00000+0  00000+0 0  9997
2 43706  54.1684 182.7566 0009972 291.4336 250.9335  1.86228565 51286
BEIDOU-3 M18 (C37)      
1 43707U 18093B   26156.36067912  .00000077  00000+0  00000+0 0  9998
2 43707  54.1691 182.6896 0007759 321.2848  38.7154  1.86226697 51310
BEIDOU-3 IGSO-1 (C38)   
1 44204U 19023A   26155.58793341 -.00000211  00000+0  00000+0 0  9991
2 44204  58.6768  37.7810 0025470 225.7549 318.3782  1.00295778  7080
BEIDOU-2 G8 (C01)       
1 44231U 19027A   26156.87701159 -.00000234  00000+0  00000+0 0  9999
2 44231   1.6292  74.4896 0010700 284.4447 355.5859  1.00275484 25968
BEIDOU-3 IGSO-2 (C39)   
1 44337U 19035A   26156.64982877 -.00000068  00000+0  00000+0 0  9993
2 44337  55.2445 158.9631 0039796 216.1606 232.8049  1.00270597 25553
BEIDOU-3 M24 (C46)      
1 44542U 19061A   26155.35556796  .00000070  00000+0  00000+0 0  9996
2 44542  54.3958 183.1608 0008292 359.5616   0.4973  1.86229272 45559
BEIDOU-3 M23 (C45)      
1 44543U 19061B   26156.16027098  .00000075  00000+0  00000+0 0  9990
2 44543  54.3945 183.1018 0005525 339.5866 111.6566  1.86227560 45575
BEIDOU-3 IGSO-3 (C40)   
1 44709U 19073A   26136.81046384 -.00000217  00000+0  00000+0 0  9995
2 44709  54.8566 281.2355 0042953 189.4588 170.3676  1.00246251 24144
BEIDOU-3 M22 (C44)      
1 44793U 19078A   26156.80606815 -.00000055  00000+0  00000+0 0  9995
2 44793  53.9467 300.2280 0006630  49.5810 310.4674  1.86227665 44433
BEIDOU-3 M21 (C43)      
1 44794U 19078B   26156.40905571 -.00000056  00000+0  00000+0 0  9994
2 44794  53.9202 300.2034 0004554  47.7138 312.3144  1.86228154 44431
BEIDOU-3 M19 (C41)      
1 44864U 19090A   26156.35556569 -.00000039  00000+0  00000+0 0  9990
2 44864  56.5483  63.1823 0018154 297.5241 223.8735  1.86231656 44018
BEIDOU-3 M20 (C42)      
1 44865U 19090B   26156.79105872 -.00000038  00000+0  00000+0 0  9995
2 44865  56.5505  63.2026 0016134 310.9679 232.0002  1.86231721 44002
BEIDOU-3 G2 (C60)       
1 45344U 20017A   26156.91045541 -.00000129  00000+0  00000+0 0  9990
2 45344   2.8411  47.1771 0002653  24.9391 230.0173  1.00274413 23147
BEIDOU-3 G3 (C61)       
1 45807U 20040A   26156.87025154 -.00000341  00000+0  00000+0 0  9999
2 45807   2.4193  67.4250 0003052 336.7480 273.9884  1.00273760 21954
BEIDOU-3 G4 (C62)       
1 56564U 23066A   26156.87614491 -.00000269  00000+0  00000+0 0  9999
2 56564   0.5005 328.5318 0004424 168.4492 212.7424  1.00268094 11280
BEIDOU-3 M28 (C50)      
1 58654U 23207A   26155.94923264 -.00000042  00000+0  00000+0 0  9995
2 58654  55.7423  62.7161 0003603 342.0403  17.9737  1.86229818 16610
BEIDOU-3 M26 (C48)      
1 58655U 23207B   26154.13584299 -.00000050  00000+0  00000+0 0  9996
2 58655  55.7428  62.7637 0003644 315.9700  44.0214  1.86229917 16563
BEIDOU-3 M25 (C47)      
1 61186U 24168B   26155.83666087 -.00000058  00000+0  00000+0 0  9998
2 61186  54.4852 302.6721 0003063 306.3392 231.2716  1.86230297 11553
BEIDOU-3 M27 (C49)      
1 61187U 24168C   26156.40270824 -.00000056  00000+0  00000+0 0  9991
2 61187  54.4801 302.6355 0001771  47.4738 284.6672  1.86230356  9031
